[{"OBJECT_NAME":"POLYITAN-1","OBJECT_ID":"2014-033AJ","EPOCH":"2026-03-09T22:27:50.258304","MEAN_MOTION":15.29568085,"ECCENTRICITY":0.00093607,"INCLINATION":98.1053,"RA_OF_ASC_NODE":86.0432,"ARG_OF_PERICENTER":127.248,"MEAN_ANOMALY":232.9614,"EPHEMERIS_TYPE":0,"CLASSIFICATION_TYPE":"U","NORAD_CAT_ID":40042,"ELEMENT_SET_NO":999,"REV_AT_EPOCH":63840,"BSTAR":0.00083772474,"MEAN_MOTION_DOT":0.00024003,"MEAN_MOTION_DDOT":0},{"OBJECT_NAME":"STARLINK-31757","OBJECT_ID":"2024-065G","EPOCH":"2026-03-09T21:49:35.193504","MEAN_MOTION":15.30188388,"ECCENTRICITY":0.00012479,"INCLINATION":53.1601,"RA_OF_ASC_NODE":280.6237,"ARG_OF_PERICENTER":86.116,"MEAN_ANOMALY":273.9983,"EPHEMERIS_TYPE":0,"CLASSIFICATION_TYPE":"U","NORAD_CAT_ID":59427,"ELEMENT_SET_NO":999,"REV_AT_EPOCH":10896,"BSTAR":3.0095064e-5,"MEAN_MOTION_DOT":5.32e-6,"MEAN_MOTION_DDOT":0}]
